DELTA 2 R/B(1)          
1 20453U 90008B   26037.08186883  .00077268  00000+0  10279-2 0  9991
2 20453  35.6065  21.5888 0095851 324.0484  35.3829 15.51612423921211
COSMOS 2058             
1 20465U 90010A   26037.59301821  .00005145  00000+0  30569-3 0  9994
2 20465  82.4634  78.0623 0012073  83.6310 276.6295 15.11034029937547
SL-14 R/B               
1 20466U 90010B   26037.79610674  .00000649  00000+0  75621-4 0  9999
2 20466  82.5031 296.4083 0020946  44.8452 315.4451 14.83541772923907
SL-14 R/B               
1 20511U 90018B   26037.64907451  .00000532  00000+0  63811-4 0  9993
2 20511  82.5184 252.1098 0016049 189.3394 170.7524 14.82112727917988
HST                     
1 20580U 90037B   26037.81329488  .00008638  00000+0  29016-3 0  9990
2 20580  28.4665 250.5538 0001881 124.2058 235.8715 15.28986456768585
SL-16 R/B               
1 20625U 90046B   26037.31002610  .00000082  00000+0  66868-4 0  9992
2 20625  70.9999   3.8134 0014581 343.2232  16.8406 14.15005288843955
COSMOS 2084             
1 20663U 90055A   26037.50496118  .00003519  00000+0  25653-3 0  9999
2 20663  62.7897  81.9221 0022026 183.5474 176.5474 15.05449161931626
SL-6 R/B(2)             
1 20666U 90055D   26036.97986805  .00004021  00000+0  30727-3 0  9996
2 20666  62.7852   1.6695 0020032 337.8166  22.2064 15.03423586933424
SL-8 R/B                
1 20775U 90078B   26037.72083405  .00018509  00000+0  54620-3 0  9994
2 20775  82.9020 279.1383 0367240 117.7522 246.1449 14.88038366804698
SL-8 R/B                
1 21088U 91006B   26037.83644843  .00000022  00000+0  59964-5 0  9994
2 21088  82.9428 192.9843 0023556 120.3878 350.6727 13.77491956759823
OKEAN-3                 
1 21397U 91039A   26037.35698847  .00004685  00000+0  33134-3 0  9991
2 21397  82.5183   7.1883 0016467  79.4474 280.8607 15.04555101860324
COSMOS 2151             
1 21422U 91042A   26037.79820598  .00002607  00000+0  20731-3 0  9993
2 21422  82.4964 113.4744 0013149 157.5943 202.5858 14.99985063858568
